{
  "type": "FeatureCollection",
  "features": [
    {
      "type": "Feature",
      "properties": {
        "segment_id": "n22-seg-1",
        "road_ref": "N22",
        "label": "Cork to Ballincollig",
        "sequence_order": 0
      },
      "geometry": {
        "type": "LineString",
        "coordinates": [
          [
            -8.510468502501457,
            51.89445980368614
          ],
          [
            -8.51774417,
            51.893932129999996
          ],
          [
            -8.527053949999999,
            51.894710675
          ],
          [
            -8.53199828,
            51.895126860000005
          ],
          [
            -8.539245133333333,
            51.89573193333334
          ],
          [
            -8.54452513076923,
            51.89617786923077
          ],
          [
            -8.55281298,
            51.89687375999999
          ],
          [
            -8.560534154166666,
            51.8963904375
          ],
          [
            -8.570236070742359,
            51.88319311441048
          ],
          [
            -8.57681315,
            51.873920240909094
          ],
          [
            -8.584831492857143,
            51.872882221428576
          ],
          [
            -8.591195252941176,
            51.87272709411765
          ],
          [
            -8.597965833333335,
            51.87321212
          ],
          [
            -8.600964062331679,
            51.87372744740428
          ]
        ]
      }
    },
    {
      "type": "Feature",
      "properties": {
        "segment_id": "n22-seg-2",
        "road_ref": "N22",
        "label": "Ballincollig to Macroom (Macroom Bypass)",
        "sequence_order": 1
      },
      "geometry": {
        "type": "LineString",
        "coordinates": [
          [
            -8.600964062331679,
            51.87372744740428
          ],
          [
            -8.6047681,
            51.874381275
          ],
          [
            -8.611459270000001,
            51.87618241
          ],
          [
            -8.617279414285715,
            51.8775616
          ],
          [
            -8.624620758823529,
            51.87834248235294
          ],
          [
            -8.631084988888889,
            51.87861364444444
          ],
          [
            -8.637822827272727,
            51.87874394090909
          ],
          [
            -8.645174865517241,
            51.87852004482759
          ],
          [
            -8.6504638,
            51.87941932380952
          ],
          [
            -8.656303478571429,
            51.88060987857143
          ],
          [
            -8.664542183333333,
            51.88189403333333
          ],
          [
            -8.67085794117647,
            51.88277010588235
          ],
          [
            -8.678015425,
            51.88250390416667
          ],
          [
            -8.685188166666666,
            51.880755625
          ],
          [
            -8.693191825,
            51.87901910625
          ],
          [
            -8.700781749999999,
            51.87718861666667
          ],
          [
            -8.70710191,
            51.87650258
          ],
          [
            -8.71281716,
            51.87507963
          ],
          [
            -8.720551675,
            51.87336055
          ],
          [
            -8.72863066,
            51.872441560000006
          ],
          [
            -8.733835558333334,
            51.87205629166667
          ],
          [
            -8.7419887,
            51.8705441
          ],
          [
            -8.74913384,
            51.86833854
          ],
          [
            -8.755272725000001,
            51.867175700000004
          ],
          [
            -8.76311745,
            51.8664866875
          ],
          [
            -8.770433800000001,
            51.865078679999996
          ],
          [
            -8.7777799375,
            51.8634574
          ],
          [
            -8.783828625,
            51.8617180375
          ],
          [
            -8.792811350000001,
            51.85971345
          ],
          [
            -8.799122333333333,
            51.8584473
          ],
          [
            -8.8028797,
            51.857552
          ],
          [
            -8.933140400000001,
            51.883956227272726
          ],
          [
            -8.935022508196722,
            51.89039234754098
          ],
          [
            -8.940323536842106,
            51.902611368421056
          ],
          [
            -8.945504475,
            51.907032325
          ],
          [
            -8.9528965,
            51.91264918571428
          ],
          [
            -8.956074439344297,
            51.914437835621435
          ]
        ]
      }
    },
    {
      "type": "Feature",
      "properties": {
        "segment_id": "n22-seg-3",
        "road_ref": "N22",
        "label": "Macroom to Killarney",
        "sequence_order": 2
      },
      "geometry": {
        "type": "LineString",
        "coordinates": [
          [
            -8.956074439344297,
            51.914437835621435
          ],
          [
            -8.96047016,
            51.916911893333335
          ],
          [
            -8.96594858,
            51.917488379999995
          ],
          [
            -8.973773466666666,
            51.91613
          ],
          [
            -8.9802806875,
            51.9150832625
          ],
          [
            -8.9846248,
            51.914969340000006
          ],
          [
            -8.993717914285714,
            51.91496934285715
          ],
          [
            -9.00018865,
            51.91415545
          ],
          [
            -9.0040892,
            51.913868449999995
          ],
          [
            -9.0137209,
            51.9136307
          ],
          [
            -9.01945061875,
            51.913320675
          ],
          [
            -9.0262172,
            51.91153031666666
          ],
          [
            -9.034883299999999,
            51.90936956666667
          ],
          [
            -9.042958916666667,
            51.90879535
          ],
          [
            -9.049389162499999,
            51.90988565
          ],
          [
            -9.056283333333333,
            51.91410963333333
          ],
          [
            -9.062411775000001,
            51.916629575
          ],
          [
            -9.0681429375,
            51.916583425
          ],
          [
            -9.0743113,
            51.91570664166667
          ],
          [
            -9.0823898375,
            51.9165978125
          ],
          [
            -9.088395283333334,
            51.91893528333333
          ],
          [
            -9.10192185,
            51.9221847
          ],
          [
            -9.10876565,
            51.923346125
          ],
          [
            -9.112330725,
            51.924657249999996
          ],
          [
            -9.12045168,
            51.930232000000004
          ],
          [
            -9.128201566666668,
            51.93463806111111
          ],
          [
            -9.133136709999999,
            51.93708583
          ],
          [
            -9.14059734,
            51.940785989999995
          ],
          [
            -9.14438075,
            51.9435282375
          ],
          [
            -9.151700850000001,
            51.946825950000004
          ],
          [
            -9.1578454,
            51.9499908875
          ],
          [
            -9.16501288,
            51.952083130000005
          ],
          [
            -9.171650875000001,
            51.953570225
          ],
          [
            -9.17743035,
            51.955711725
          ],
          [
            -9.184656585714285,
            51.95786399285714
          ],
          [
            -9.19161251111111,
            51.958459266666665
          ],
          [
            -9.19637316,
            51.95914354
          ],
          [
            -9.2030374,
            51.961105
          ],
          [
            -9.210143757142857,
            51.9627568
          ],
          [
            -9.216879266666666,
            51.962262177777774
          ],
          [
            -9.224358825,
            51.961887725
          ],
          [
            -9.231585471428572,
            51.9612778
          ],
          [
            -9.238010066666666,
            51.960895558333334
          ],
          [
            -9.245004885714286,
            51.96341855714286
          ],
          [
            -9.251818628571428,
            51.97242861904762
          ],
          [
            -9.255158199999999,
            51.97908388181818
          ],
          [
            -9.26190886,
            51.98086732
          ],
          [
            -9.269556083333333,
            51.98205855
          ],
          [
            -9.27554793076923,
            51.98217106923077
          ],
          [
            -9.282390346153846,
            51.98497619230769
          ],
          [
            -9.287680485714287,
            51.98736062857143
          ],
          [
            -9.295570763636364,
            51.987187454545456
          ],
          [
            -9.30222056,
            51.983737510000005
          ],
          [
            -9.3102134,
            51.98245439090909
          ],
          [
            -9.315754526666666,
            51.98179968666667
          ],
          [
            -9.322268499999998,
            51.98243682857143
          ],
          [
            -9.329571429411764,
            51.98582170588235
          ],
          [
            -9.334955305555555,
            51.99441171666667
          ],
          [
            -9.33989709090909,
            51.99934127272727
          ],
          [
            -9.34703922,
            52.00559649
          ],
          [
            -9.352056880000001,
            52.01007049
          ],
          [
            -9.35963119047619,
            52.01189526666667
          ],
          [
            -9.365311742857143,
            52.01386915
          ],
          [
            -9.373481739999999,
            52.015301
          ],
          [
            -9.378232262500001,
            52.017265837500005
          ],
          [
            -9.3842445,
            52.022087171428566
          ],
          [
            -9.39092535,
            52.026733966666676
          ],
          [
            -9.39515346,
            52.029636700000005
          ],
          [
            -9.402872045454545,
            52.034075699999995
          ],
          [
            -9.40919544,
            52.03503872
          ],
          [
            -9.4168776,
            52.035590825
          ],
          [
            -9.42344498,
            52.036373260000005
          ],
          [
            -9.429372449999999,
            52.037221675
          ],
          [
            -9.437287083333333,
            52.03836413333334
          ],
          [
            -9.443488983333333,
            52.040456075
          ],
          [
            -9.44908375,
            52.044360958333336
          ],
          [
            -9.456815956140352,
            52.050304201754386
          ],
          [
            -9.46099506875,
            52.05323930625
          ],
          [
            -9.467600234782608,
            52.05658863913044
          ],
          [
            -9.47340496,
            52.05814824
          ],
          [
            -9.482330144615384,
            52.06011704153846
          ],
          [
            -9.485857755555557,
            52.06280097407407
          ],
          [
            -9.493877399999999,
            52.066156199999995
          ],
          [
            -9.500619405555556,
            52.06858112222223
          ]
        ]
      }
    }
  ]
}