{
  "type": "FeatureCollection",
  "features": [
    {
      "type": "Feature",
      "properties": {
        "osm_way_id": 5364423,
        "road_ref": "R613",
        "name": "R613"
      },
      "geometry": {
        "type": "LineString",
        "coordinates": [
          [
            -8.4917882,
            51.8167246
          ],
          [
            -8.4918767,
            51.8167791
          ],
          [
            -8.4920315,
            51.8168162
          ],
          [
            -8.4921315,
            51.8168285
          ],
          [
            -8.4922399,
            51.8168224
          ],
          [
            -8.4925325,
            51.8167877
          ]
        ]
      }
    },
    {
      "type": "Feature",
      "properties": {
        "osm_way_id": 29491657,
        "road_ref": "R613",
        "name": "Ballea Road"
      },
      "geometry": {
        "type": "LineString",
        "coordinates": [
          [
            -8.3914306,
            51.8165022
          ],
          [
            -8.3917396,
            51.8165336
          ]
        ]
      }
    },
    {
      "type": "Feature",
      "properties": {
        "osm_way_id": 67668291,
        "road_ref": "R613",
        "name": "Ballea Road"
      },
      "geometry": {
        "type": "LineString",
        "coordinates": [
          [
            -8.3917396,
            51.8165336
          ],
          [
            -8.3923691,
            51.8165634
          ],
          [
            -8.3926801,
            51.8165644
          ],
          [
            -8.3928362,
            51.8165682
          ],
          [
            -8.3931684,
            51.8165727
          ],
          [
            -8.3934945,
            51.8165868
          ],
          [
            -8.3936298,
            51.8165983
          ],
          [
            -8.3939755,
            51.8166554
          ],
          [
            -8.3942282,
            51.8167127
          ],
          [
            -8.3944998,
            51.8167677
          ],
          [
            -8.3947272,
            51.8168138
          ],
          [
            -8.3949716,
            51.8168617
          ],
          [
            -8.3952888,
            51.8169216
          ],
          [
            -8.3957603,
            51.8170106
          ],
          [
            -8.3962036,
            51.8170475
          ],
          [
            -8.396364,
            51.817055
          ],
          [
            -8.3965141,
            51.8170567
          ],
          [
            -8.3966447,
            51.8170546
          ],
          [
            -8.3972478,
            51.8170495
          ],
          [
            -8.3973836,
            51.8170484
          ],
          [
            -8.3983135,
            51.8170405
          ],
          [
            -8.3985855,
            51.817037
          ],
          [
            -8.3989778,
            51.8170165
          ],
          [
            -8.3993193,
            51.8169952
          ],
          [
            -8.399816,
            51.8169611
          ],
          [
            -8.4003228,
            51.8169194
          ],
          [
            -8.4005921,
            51.8169138
          ],
          [
            -8.4006051,
            51.8169142
          ],
          [
            -8.4008544,
            51.8169225
          ],
          [
            -8.400896,
            51.8169234
          ],
          [
            -8.4010916,
            51.8169364
          ],
          [
            -8.4015407,
            51.8169663
          ],
          [
            -8.4020675,
            51.8170315
          ],
          [
            -8.4025118,
            51.8170854
          ],
          [
            -8.4030643,
            51.8171159
          ],
          [
            -8.4035056,
            51.8171335
          ],
          [
            -8.4043845,
            51.817177
          ]
        ]
      }
    },
    {
      "type": "Feature",
      "properties": {
        "osm_way_id": 155715851,
        "road_ref": "R613",
        "name": "Ballea Road"
      },
      "geometry": {
        "type": "LineString",
        "coordinates": [
          [
            -8.3917396,
            51.8165336
          ],
          [
            -8.3914257,
            51.8165484
          ]
        ]
      }
    },
    {
      "type": "Feature",
      "properties": {
        "osm_way_id": 170273753,
        "road_ref": "R613",
        "name": "R613"
      },
      "geometry": {
        "type": "LineString",
        "coordinates": [
          [
            -8.4642686,
            51.8235724
          ],
          [
            -8.464377,
            51.8235416
          ],
          [
            -8.4644273,
            51.8235273
          ],
          [
            -8.4646791,
            51.8234501
          ],
          [
            -8.465487,
            51.8231268
          ],
          [
            -8.4656107,
            51.8230805
          ],
          [
            -8.4657639,
            51.8230265
          ],
          [
            -8.4659757,
            51.8229518
          ],
          [
            -8.466258,
            51.8228644
          ],
          [
            -8.4664701,
            51.8228048
          ],
          [
            -8.4668064,
            51.8227152
          ],
          [
            -8.4668958,
            51.8226929
          ],
          [
            -8.4673144,
            51.8225971
          ],
          [
            -8.4675585,
            51.8225487
          ]
        ]
      }
    },
    {
      "type": "Feature",
      "properties": {
        "osm_way_id": 170273756,
        "road_ref": "R613",
        "name": "R613"
      },
      "geometry": {
        "type": "LineString",
        "coordinates": [
          [
            -8.4535766,
            51.8257066
          ],
          [
            -8.4536639,
            51.8256941
          ],
          [
            -8.454258,
            51.8255925
          ],
          [
            -8.4555339,
            51.8253518
          ],
          [
            -8.4569284,
            51.8250693
          ],
          [
            -8.4578082,
            51.8248999
          ],
          [
            -8.4585882,
            51.8247518
          ],
          [
            -8.4591807,
            51.8246392
          ],
          [
            -8.4592817,
            51.82462
          ],
          [
            -8.4597636,
            51.8245236
          ],
          [
            -8.4606467,
            51.8243536
          ],
          [
            -8.4616995,
            51.8241432
          ],
          [
            -8.4621634,
            51.8240317
          ],
          [
            -8.4623697,
            51.8239705
          ],
          [
            -8.4623998,
            51.8239609
          ],
          [
            -8.4627437,
            51.8238588
          ],
          [
            -8.4630053,
            51.8237975
          ]
        ]
      }
    },
    {
      "type": "Feature",
      "properties": {
        "osm_way_id": 170273762,
        "road_ref": "R613",
        "name": "R613"
      },
      "geometry": {
        "type": "LineString",
        "coordinates": [
          [
            -8.4630053,
            51.8237975
          ],
          [
            -8.4631306,
            51.8237723
          ]
        ]
      }
    },
    {
      "type": "Feature",
      "properties": {
        "osm_way_id": 170317900,
        "road_ref": "R613",
        "name": "R613"
      },
      "geometry": {
        "type": "LineString",
        "coordinates": [
          [
            -8.4675585,
            51.8225487
          ],
          [
            -8.46793,
            51.822491
          ],
          [
            -8.4684541,
            51.8224192
          ],
          [
            -8.4689806,
            51.8223624
          ],
          [
            -8.4695026,
            51.8223206
          ],
          [
            -8.4699328,
            51.8223123
          ],
          [
            -8.4705406,
            51.8223272
          ],
          [
            -8.4706186,
            51.8223242
          ],
          [
            -8.4708142,
            51.8223168
          ],
          [
            -8.4712661,
            51.8222619
          ],
          [
            -8.4715915,
            51.8221997
          ],
          [
            -8.4723307,
            51.8220106
          ],
          [
            -8.4729224,
            51.8218398
          ],
          [
            -8.4734556,
            51.8216686
          ],
          [
            -8.4739459,
            51.8215505
          ],
          [
            -8.4744601,
            51.8214781
          ],
          [
            -8.4747731,
            51.8214517
          ],
          [
            -8.4750673,
            51.821436
          ],
          [
            -8.4753849,
            51.8213932
          ],
          [
            -8.476008,
            51.8212522
          ],
          [
            -8.4766878,
            51.8210202
          ],
          [
            -8.4774587,
            51.8207239
          ],
          [
            -8.4775333,
            51.8206952
          ],
          [
            -8.4777387,
            51.8206027
          ],
          [
            -8.4780394,
            51.8204654
          ],
          [
            -8.4781096,
            51.8204334
          ],
          [
            -8.4787565,
            51.8200993
          ],
          [
            -8.4789166,
            51.8200121
          ],
          [
            -8.4797627,
            51.8195541
          ],
          [
            -8.4801199,
            51.8194042
          ],
          [
            -8.4806293,
            51.8192558
          ],
          [
            -8.4814003,
            51.8190909
          ],
          [
            -8.482226,
            51.8188534
          ],
          [
            -8.4836479,
            51.8184386
          ],
          [
            -8.4843882,
            51.8182528
          ],
          [
            -8.4853803,
            51.8180143
          ],
          [
            -8.4864302,
            51.8177939
          ],
          [
            -8.4873558,
            51.8176762
          ],
          [
            -8.4882242,
            51.8174935
          ],
          [
            -8.4888262,
            51.8173529
          ],
          [
            -8.4890754,
            51.8172947
          ],
          [
            -8.4898051,
            51.8171425
          ],
          [
            -8.490011,
            51.8170999
          ],
          [
            -8.4906972,
            51.8169386
          ]
        ]
      }
    },
    {
      "type": "Feature",
      "properties": {
        "osm_way_id": 170332957,
        "road_ref": "R613",
        "name": "R613"
      },
      "geometry": {
        "type": "LineString",
        "coordinates": [
          [
            -8.4240793,
            51.8280968
          ],
          [
            -8.4245114,
            51.8281454
          ]
        ]
      }
    },
    {
      "type": "Feature",
      "properties": {
        "osm_way_id": 170332961,
        "road_ref": "R613",
        "name": "R613"
      },
      "geometry": {
        "type": "LineString",
        "coordinates": [
          [
            -8.4245114,
            51.8281454
          ],
          [
            -8.4256736,
            51.8283082
          ],
          [
            -8.4262605,
            51.8283508
          ],
          [
            -8.4271518,
            51.8284615
          ],
          [
            -8.4278762,
            51.8285177
          ],
          [
            -8.428314,
            51.8285764
          ],
          [
            -8.42929,
            51.8287577
          ],
          [
            -8.4300963,
            51.8288574
          ],
          [
            -8.4304887,
            51.8288745
          ],
          [
            -8.4306856,
            51.8288586
          ]
        ]
      }
    },
    {
      "type": "Feature",
      "properties": {
        "osm_way_id": 170332962,
        "road_ref": "R613",
        "name": "Ballea Road"
      },
      "geometry": {
        "type": "LineString",
        "coordinates": [
          [
            -8.4051305,
            51.8171411
          ],
          [
            -8.405225,
            51.8171663
          ],
          [
            -8.4054529,
            51.8172065
          ]
        ]
      }
    },
    {
      "type": "Feature",
      "properties": {
        "osm_way_id": 170332965,
        "road_ref": "R613",
        "name": "R613"
      },
      "geometry": {
        "type": "LineString",
        "coordinates": [
          [
            -8.4177225,
            51.8173104
          ],
          [
            -8.4179371,
            51.8173182
          ],
          [
            -8.4183517,
            51.8173912
          ],
          [
            -8.4187468,
            51.8175144
          ],
          [
            -8.4191373,
            51.8176747
          ],
          [
            -8.4199039,
            51.8181259
          ],
          [
            -8.4200625,
            51.8182082
          ],
          [
            -8.4203958,
            51.818331
          ],
          [
            -8.4207582,
            51.8184094
          ],
          [
            -8.4209661,
            51.8184669
          ],
          [
            -8.4210801,
            51.8185185
          ],
          [
            -8.4211361,
            51.8185873
          ],
          [
            -8.4211428,
            51.818712
          ],
          [
            -8.4210841,
            51.8191794
          ],
          [
            -8.4211664,
            51.8198432
          ],
          [
            -8.4214019,
            51.8205734
          ],
          [
            -8.4215733,
            51.8213584
          ],
          [
            -8.4216691,
            51.821762
          ],
          [
            -8.421624,
            51.8219957
          ],
          [
            -8.4215564,
            51.8221537
          ],
          [
            -8.4215063,
            51.8223888
          ],
          [
            -8.4214757,
            51.8227048
          ],
          [
            -8.421554,
            51.8229744
          ],
          [
            -8.4217876,
            51.8233303
          ],
          [
            -8.4219035,
            51.8236315
          ],
          [
            -8.4219252,
            51.8237889
          ],
          [
            -8.4220196,
            51.8240511
          ],
          [
            -8.4219952,
            51.8242763
          ],
          [
            -8.4219011,
            51.8244712
          ],
          [
            -8.4215937,
            51.8249463
          ],
          [
            -8.4214223,
            51.8251008
          ],
          [
            -8.4211554,
            51.8252437
          ],
          [
            -8.4197513,
            51.8257717
          ],
          [
            -8.4195901,
            51.8259131
          ],
          [
            -8.4195024,
            51.8261081
          ],
          [
            -8.4194799,
            51.8263221
          ],
          [
            -8.4195493,
            51.8264869
          ],
          [
            -8.4197967,
            51.8267485
          ],
          [
            -8.4201744,
            51.8269628
          ],
          [
            -8.4206002,
            51.8271287
          ],
          [
            -8.4210825,
            51.8272403
          ],
          [
            -8.4218263,
            51.8273259
          ],
          [
            -8.4221572,
            51.8273777
          ],
          [
            -8.4226513,
            51.827454
          ],
          [
            -8.4229981,
            51.8275717
          ],
          [
            -8.4232105,
            51.827704
          ],
          [
            -8.4234482,
            51.8279123
          ],
          [
            -8.4235903,
            51.8280058
          ],
          [
            -8.4237325,
            51.8280514
          ]
        ]
      }
    },
    {
      "type": "Feature",
      "properties": {
        "osm_way_id": 170332966,
        "road_ref": "R613",
        "name": "R613"
      },
      "geometry": {
        "type": "LineString",
        "coordinates": [
          [
            -8.4237325,
            51.8280514
          ],
          [
            -8.4240793,
            51.8280968
          ]
        ]
      }
    },
    {
      "type": "Feature",
      "properties": {
        "osm_way_id": 180291430,
        "road_ref": "R613",
        "name": "Ballea Road"
      },
      "geometry": {
        "type": "LineString",
        "coordinates": [
          [
            -8.4054529,
            51.8172065
          ],
          [
            -8.4052085,
            51.8172258
          ],
          [
            -8.4051371,
            51.8172503
          ]
        ]
      }
    },
    {
      "type": "Feature",
      "properties": {
        "osm_way_id": 180291442,
        "road_ref": "R613",
        "name": "R613"
      },
      "geometry": {
        "type": "LineString",
        "coordinates": [
          [
            -8.4051516,
            51.8171668
          ],
          [
            -8.40516,
            51.8171951
          ],
          [
            -8.4051551,
            51.8172237
          ],
          [
            -8.4051371,
            51.8172503
          ],
          [
            -8.4051099,
            51.8172713
          ],
          [
            -8.4050746,
            51.817287
          ],
          [
            -8.4050151,
            51.817299
          ],
          [
            -8.4049904,
            51.8172987
          ],
          [
            -8.4049443,
            51.8172931
          ],
          [
            -8.4049027,
            51.8172795
          ],
          [
            -8.4048692,
            51.8172591
          ],
          [
            -8.4048454,
            51.8172317
          ],
          [
            -8.4048365,
            51.817201
          ],
          [
            -8.4048432,
            51.8171702
          ],
          [
            -8.404865,
            51.8171421
          ],
          [
            -8.4048874,
            51.8171259
          ],
          [
            -8.4049149,
            51.817113
          ],
          [
            -8.4049573,
            51.817102
          ],
          [
            -8.405003,
            51.8170988
          ],
          [
            -8.4050483,
            51.8171036
          ],
          [
            -8.4050895,
            51.8171162
          ],
          [
            -8.4051118,
            51.8171275
          ],
          [
            -8.4051305,
            51.8171411
          ],
          [
            -8.4051516,
            51.8171668
          ]
        ]
      }
    },
    {
      "type": "Feature",
      "properties": {
        "osm_way_id": 180291447,
        "road_ref": "R613",
        "name": "Ballea Road"
      },
      "geometry": {
        "type": "LineString",
        "coordinates": [
          [
            -8.4054529,
            51.8172065
          ],
          [
            -8.4057654,
            51.817219
          ],
          [
            -8.4058064,
            51.8172225
          ],
          [
            -8.4059481,
            51.8172346
          ],
          [
            -8.4061258,
            51.8172498
          ],
          [
            -8.4065146,
            51.8173215
          ],
          [
            -8.4071527,
            51.8174618
          ],
          [
            -8.407182,
            51.8174682
          ],
          [
            -8.4073789,
            51.8175154
          ],
          [
            -8.4081011,
            51.8176885
          ],
          [
            -8.4081884,
            51.8177094
          ],
          [
            -8.4084906,
            51.8178339
          ],
          [
            -8.4088423,
            51.818011
          ],
          [
            -8.4089542,
            51.8180673
          ],
          [
            -8.4089942,
            51.8180903
          ],
          [
            -8.4093217,
            51.8182789
          ],
          [
            -8.4095797,
            51.8184274
          ],
          [
            -8.4095928,
            51.8184353
          ],
          [
            -8.4097351,
            51.8185208
          ],
          [
            -8.4099583,
            51.818603
          ],
          [
            -8.4100177,
            51.8186187
          ],
          [
            -8.4101959,
            51.8186657
          ],
          [
            -8.4104148,
            51.8186929
          ],
          [
            -8.4106181,
            51.8186931
          ],
          [
            -8.4108973,
            51.8186579
          ],
          [
            -8.411511,
            51.8185719
          ],
          [
            -8.411552,
            51.8185662
          ],
          [
            -8.4117055,
            51.8185271
          ],
          [
            -8.4119836,
            51.8184498
          ],
          [
            -8.4124181,
            51.8183086
          ]
        ]
      }
    },
    {
      "type": "Feature",
      "properties": {
        "osm_way_id": 180291456,
        "road_ref": "R613",
        "name": "Ballea Road"
      },
      "geometry": {
        "type": "LineString",
        "coordinates": [
          [
            -8.4043845,
            51.817177
          ],
          [
            -8.4046832,
            51.8171729
          ],
          [
            -8.4047985,
            51.8171563
          ],
          [
            -8.404865,
            51.8171421
          ]
        ]
      }
    },
    {
      "type": "Feature",
      "properties": {
        "osm_way_id": 180291465,
        "road_ref": "R613",
        "name": "Ballea Road"
      },
      "geometry": {
        "type": "LineString",
        "coordinates": [
          [
            -8.4048692,
            51.8172591
          ],
          [
            -8.4047631,
            51.8172401
          ],
          [
            -8.4043845,
            51.817177
          ]
        ]
      }
    },
    {
      "type": "Feature",
      "properties": {
        "osm_way_id": 239585639,
        "road_ref": "R613",
        "name": "Church Road"
      },
      "geometry": {
        "type": "LineString",
        "coordinates": [
          [
            -8.3888282,
            51.8160546
          ],
          [
            -8.3889445,
            51.8160803
          ],
          [
            -8.3890557,
            51.816109
          ],
          [
            -8.389096,
            51.8161191
          ],
          [
            -8.3891235,
            51.8161262
          ],
          [
            -8.3892553,
            51.8161604
          ],
          [
            -8.3896317,
            51.816272
          ]
        ]
      }
    },
    {
      "type": "Feature",
      "properties": {
        "osm_way_id": 239585670,
        "road_ref": "R613",
        "name": "R613"
      },
      "geometry": {
        "type": "LineString",
        "coordinates": [
          [
            -8.3911933,
            51.8165711
          ],
          [
            -8.39082,
            51.8165318
          ]
        ]
      }
    },
    {
      "type": "Feature",
      "properties": {
        "osm_way_id": 239586081,
        "road_ref": "R613",
        "name": "Church Road"
      },
      "geometry": {
        "type": "LineString",
        "coordinates": [
          [
            -8.3871631,
            51.8156413
          ],
          [
            -8.3875258,
            51.8157348
          ],
          [
            -8.3881215,
            51.8158864
          ],
          [
            -8.3885119,
            51.8159816
          ],
          [
            -8.3885502,
            51.8159912
          ]
        ]
      }
    },
    {
      "type": "Feature",
      "properties": {
        "osm_way_id": 239586115,
        "road_ref": "R613",
        "name": "Church Road"
      },
      "geometry": {
        "type": "LineString",
        "coordinates": [
          [
            -8.386177,
            51.8154126
          ],
          [
            -8.3855751,
            51.8153448
          ],
          [
            -8.3852226,
            51.815316
          ],
          [
            -8.3848868,
            51.8153181
          ],
          [
            -8.3847141,
            51.8153291
          ],
          [
            -8.3845975,
            51.8153366
          ],
          [
            -8.3842376,
            51.8153757
          ],
          [
            -8.3837955,
            51.8154255
          ]
        ]
      }
    },
    {
      "type": "Feature",
      "properties": {
        "osm_way_id": 239586217,
        "road_ref": "R613",
        "name": "Church Road"
      },
      "geometry": {
        "type": "LineString",
        "coordinates": [
          [
            -8.3815494,
            51.815727
          ],
          [
            -8.3811686,
            51.8157716
          ],
          [
            -8.3809682,
            51.8157951
          ],
          [
            -8.380429,
            51.8158218
          ],
          [
            -8.3790337,
            51.8158614
          ],
          [
            -8.3788441,
            51.8158697
          ],
          [
            -8.3785745,
            51.8158816
          ],
          [
            -8.3783305,
            51.8158915
          ],
          [
            -8.377996,
            51.8158952
          ],
          [
            -8.3776537,
            51.8158893
          ],
          [
            -8.3765312,
            51.8158547
          ],
          [
            -8.3762562,
            51.815853
          ],
          [
            -8.3757423,
            51.8158456
          ],
          [
            -8.3756598,
            51.8158443
          ],
          [
            -8.3753574,
            51.8158396
          ],
          [
            -8.375009,
            51.8158468
          ]
        ]
      }
    },
    {
      "type": "Feature",
      "properties": {
        "osm_way_id": 239586335,
        "road_ref": "R613",
        "name": "R613"
      },
      "geometry": {
        "type": "LineString",
        "coordinates": [
          [
            -8.3743357,
            51.8158692
          ],
          [
            -8.3743124,
            51.8158699
          ],
          [
            -8.3740286,
            51.8158789
          ],
          [
            -8.3738396,
            51.8158888
          ],
          [
            -8.3736016,
            51.8159163
          ],
          [
            -8.3733821,
            51.8159466
          ],
          [
            -8.3728333,
            51.8160391
          ],
          [
            -8.3723005,
            51.8161178
          ],
          [
            -8.3722519,
            51.8161257
          ],
          [
            -8.3718163,
            51.8161961
          ],
          [
            -8.3714714,
            51.8162519
          ],
          [
            -8.3711623,
            51.8163075
          ],
          [
            -8.3706547,
            51.8163989
          ],
          [
            -8.370627,
            51.8164031
          ],
          [
            -8.3705075,
            51.8164214
          ],
          [
            -8.3703656,
            51.8164313
          ],
          [
            -8.3702552,
            51.8164362
          ],
          [
            -8.3702216,
            51.8164377
          ],
          [
            -8.370084,
            51.8164368
          ],
          [
            -8.3699587,
            51.8164302
          ],
          [
            -8.3697972,
            51.8164176
          ],
          [
            -8.3695258,
            51.8163992
          ],
          [
            -8.3693178,
            51.8163933
          ],
          [
            -8.3691207,
            51.8163982
          ],
          [
            -8.3690129,
            51.8164125
          ],
          [
            -8.3689891,
            51.8164156
          ],
          [
            -8.3689791,
            51.8164175
          ],
          [
            -8.3688693,
            51.8164382
          ],
          [
            -8.3687072,
            51.8164849
          ],
          [
            -8.3685697,
            51.816542
          ],
          [
            -8.3682686,
            51.8166834
          ],
          [
            -8.3681238,
            51.8167555
          ],
          [
            -8.3680042,
            51.816815
          ],
          [
            -8.367668,
            51.816975
          ],
          [
            -8.36748,
            51.8170615
          ],
          [
            -8.3673911,
            51.8170983
          ],
          [
            -8.3673142,
            51.8171225
          ],
          [
            -8.3672943,
            51.8171287
          ],
          [
            -8.3672005,
            51.817158
          ],
          [
            -8.3670965,
            51.817183
          ],
          [
            -8.366948,
            51.8172068
          ],
          [
            -8.3661861,
            51.8172958
          ],
          [
            -8.3657184,
            51.8173586
          ],
          [
            -8.3655558,
            51.8173807
          ],
          [
            -8.3653486,
            51.8173999
          ]
        ]
      }
    },
    {
      "type": "Feature",
      "properties": {
        "osm_way_id": 239586505,
        "road_ref": "R613",
        "name": "R613"
      },
      "geometry": {
        "type": "LineString",
        "coordinates": [
          [
            -8.3653486,
            51.8173999
          ],
          [
            -8.3650924,
            51.8174147
          ],
          [
            -8.3648327,
            51.8174156
          ],
          [
            -8.3645487,
            51.8174174
          ],
          [
            -8.3642627,
            51.8174294
          ],
          [
            -8.3642096,
            51.8174316
          ],
          [
            -8.3639852,
            51.8174547
          ],
          [
            -8.3637672,
            51.8174933
          ],
          [
            -8.3636702,
            51.8175184
          ],
          [
            -8.3636248,
            51.817532
          ],
          [
            -8.3635875,
            51.8175501
          ],
          [
            -8.3630794,
            51.8178741
          ],
          [
            -8.3630183,
            51.8179052
          ],
          [
            -8.362944,
            51.8179256
          ],
          [
            -8.3628794,
            51.8179407
          ],
          [
            -8.3628155,
            51.8179433
          ],
          [
            -8.3621722,
            51.8179281
          ],
          [
            -8.3619647,
            51.8179184
          ],
          [
            -8.3615715,
            51.8179
          ],
          [
            -8.3612933,
            51.8178857
          ],
          [
            -8.3611472,
            51.8178828
          ],
          [
            -8.3610463,
            51.8178929
          ],
          [
            -8.3609284,
            51.8179237
          ],
          [
            -8.3602069,
            51.8181343
          ],
          [
            -8.3598859,
            51.8182659
          ],
          [
            -8.3596496,
            51.8183658
          ],
          [
            -8.359565,
            51.8183943
          ],
          [
            -8.3594967,
            51.8184173
          ],
          [
            -8.3592402,
            51.8184782
          ],
          [
            -8.3590238,
            51.8185342
          ]
        ]
      }
    },
    {
      "type": "Feature",
      "properties": {
        "osm_way_id": 338814007,
        "road_ref": "R613",
        "name": "R613"
      },
      "geometry": {
        "type": "LineString",
        "coordinates": [
          [
            -8.3584187,
            51.818675
          ],
          [
            -8.3583899,
            51.818687
          ],
          [
            -8.3581507,
            51.8187867
          ],
          [
            -8.357835,
            51.8189195
          ],
          [
            -8.3576354,
            51.8190009
          ],
          [
            -8.3568321,
            51.8193283
          ],
          [
            -8.3567677,
            51.8193578
          ],
          [
            -8.3561308,
            51.8196492
          ],
          [
            -8.3561203,
            51.819654
          ],
          [
            -8.3556355,
            51.8198451
          ],
          [
            -8.3553881,
            51.8199334
          ],
          [
            -8.3551281,
            51.8200078
          ],
          [
            -8.3551201,
            51.8200101
          ],
          [
            -8.3545567,
            51.8201467
          ],
          [
            -8.3544188,
            51.8201801
          ],
          [
            -8.3543955,
            51.8201858
          ],
          [
            -8.3540262,
            51.8202689
          ],
          [
            -8.3539442,
            51.8202853
          ],
          [
            -8.3536527,
            51.8203437
          ],
          [
            -8.35319,
            51.8204337
          ],
          [
            -8.3529632,
            51.8204764
          ],
          [
            -8.3528514,
            51.8204929
          ],
          [
            -8.3523178,
            51.8205671
          ],
          [
            -8.3521979,
            51.8205838
          ],
          [
            -8.3520988,
            51.820597
          ],
          [
            -8.3518831,
            51.8206256
          ],
          [
            -8.3518216,
            51.8206338
          ],
          [
            -8.351759,
            51.8206431
          ],
          [
            -8.3513884,
            51.8206982
          ],
          [
            -8.3513736,
            51.8207004
          ],
          [
            -8.3512425,
            51.820721
          ],
          [
            -8.3511505,
            51.8207355
          ],
          [
            -8.3509398,
            51.8207832
          ],
          [
            -8.3507679,
            51.8208294
          ],
          [
            -8.3507049,
            51.8208463
          ],
          [
            -8.3504904,
            51.820919
          ],
          [
            -8.3504519,
            51.8209335
          ],
          [
            -8.3502688,
            51.8210023
          ],
          [
            -8.3501778,
            51.8210357
          ],
          [
            -8.3501202,
            51.8210568
          ],
          [
            -8.3500643,
            51.8210773
          ],
          [
            -8.349807,
            51.8211556
          ],
          [
            -8.3495114,
            51.8212456
          ],
          [
            -8.3493726,
            51.821279
          ],
          [
            -8.3491652,
            51.8213159
          ],
          [
            -8.3489414,
            51.8213511
          ],
          [
            -8.3489275,
            51.8213533
          ],
          [
            -8.3485562,
            51.8214057
          ],
          [
            -8.3483223,
            51.8214363
          ],
          [
            -8.3481818,
            51.8214547
          ],
          [
            -8.3476485,
            51.8215168
          ],
          [
            -8.3473009,
            51.8215567
          ]
        ]
      }
    },
    {
      "type": "Feature",
      "properties": {
        "osm_way_id": 340308435,
        "road_ref": "R613",
        "name": "R613"
      },
      "geometry": {
        "type": "LineString",
        "coordinates": [
          [
            -8.3590238,
            51.8185342
          ],
          [
            -8.3587111,
            51.8186004
          ],
          [
            -8.3584187,
            51.818675
          ]
        ]
      }
    },
    {
      "type": "Feature",
      "properties": {
        "osm_way_id": 341628018,
        "road_ref": "R613",
        "name": "Church Road"
      },
      "geometry": {
        "type": "LineString",
        "coordinates": [
          [
            -8.3899877,
            51.816363
          ],
          [
            -8.3905597,
            51.816482
          ],
          [
            -8.39082,
            51.8165318
          ]
        ]
      }
    },
    {
      "type": "Feature",
      "properties": {
        "osm_way_id": 341873000,
        "road_ref": "R613",
        "name": "R613"
      },
      "geometry": {
        "type": "LineString",
        "coordinates": [
          [
            -8.4356305,
            51.8280907
          ],
          [
            -8.436065,
            51.8279659
          ],
          [
            -8.4364622,
            51.827854
          ]
        ]
      }
    },
    {
      "type": "Feature",
      "properties": {
        "osm_way_id": 341873006,
        "road_ref": "R613",
        "name": "R613"
      },
      "geometry": {
        "type": "LineString",
        "coordinates": [
          [
            -8.4306856,
            51.8288586
          ],
          [
            -8.4313261,
            51.8287965
          ],
          [
            -8.4321587,
            51.8287612
          ],
          [
            -8.4329961,
            51.8287029
          ],
          [
            -8.4334142,
            51.8286457
          ],
          [
            -8.4344215,
            51.8284379
          ],
          [
            -8.4356305,
            51.8280907
          ]
        ]
      }
    },
    {
      "type": "Feature",
      "properties": {
        "osm_way_id": 345089138,
        "road_ref": "R613",
        "name": "R613"
      },
      "geometry": {
        "type": "LineString",
        "coordinates": [
          [
            -8.4364622,
            51.827854
          ],
          [
            -8.4366152,
            51.8278153
          ],
          [
            -8.4370237,
            51.8277577
          ],
          [
            -8.4378244,
            51.82768
          ],
          [
            -8.4389905,
            51.827473
          ],
          [
            -8.439327,
            51.8274507
          ],
          [
            -8.4400084,
            51.8274687
          ],
          [
            -8.4408453,
            51.8274606
          ],
          [
            -8.4415742,
            51.8274246
          ],
          [
            -8.4418409,
            51.8273998
          ],
          [
            -8.4421035,
            51.8273753
          ],
          [
            -8.4428827,
            51.8272755
          ],
          [
            -8.4431603,
            51.8272609
          ],
          [
            -8.4437817,
            51.8272599
          ],
          [
            -8.4440473,
            51.8272492
          ],
          [
            -8.4440628,
            51.8272486
          ],
          [
            -8.444212,
            51.8272426
          ],
          [
            -8.4459138,
            51.8271294
          ],
          [
            -8.4463576,
            51.8270872
          ],
          [
            -8.4466341,
            51.8270487
          ],
          [
            -8.4469991,
            51.8269951
          ],
          [
            -8.4484976,
            51.8267168
          ],
          [
            -8.4503282,
            51.8263769
          ],
          [
            -8.4508639,
            51.8263143
          ],
          [
            -8.4513606,
            51.8262581
          ],
          [
            -8.4517325,
            51.8261874
          ]
        ]
      }
    },
    {
      "type": "Feature",
      "properties": {
        "osm_way_id": 441637876,
        "road_ref": "R613",
        "name": "R613"
      },
      "geometry": {
        "type": "LineString",
        "coordinates": [
          [
            -8.39082,
            51.8165318
          ],
          [
            -8.3911766,
            51.8164866
          ]
        ]
      }
    },
    {
      "type": "Feature",
      "properties": {
        "osm_way_id": 672832861,
        "road_ref": "R613",
        "name": "R613"
      },
      "geometry": {
        "type": "LineString",
        "coordinates": [
          [
            -8.4925325,
            51.8167877
          ],
          [
            -8.4922491,
            51.8168627
          ],
          [
            -8.4921233,
            51.8168794
          ],
          [
            -8.4920016,
            51.8168881
          ],
          [
            -8.4918914,
            51.8168875
          ],
          [
            -8.4918292,
            51.8168737
          ],
          [
            -8.4917661,
            51.8168478
          ],
          [
            -8.4916776,
            51.8167932
          ]
        ]
      }
    },
    {
      "type": "Feature",
      "properties": {
        "osm_way_id": 672832862,
        "road_ref": "R613",
        "name": "R613"
      },
      "geometry": {
        "type": "LineString",
        "coordinates": [
          [
            -8.4925325,
            51.8167877
          ],
          [
            -8.4927972,
            51.8167395
          ],
          [
            -8.4935814,
            51.8166399
          ],
          [
            -8.4946001,
            51.8165072
          ],
          [
            -8.4950131,
            51.8164737
          ],
          [
            -8.4953239,
            51.8164486
          ],
          [
            -8.495976,
            51.8164381
          ],
          [
            -8.4970115,
            51.8164145
          ],
          [
            -8.4980834,
            51.8163984
          ],
          [
            -8.4982745,
            51.8163937
          ],
          [
            -8.4991467,
            51.8163722
          ],
          [
            -8.499865,
            51.8163459
          ],
          [
            -8.5007288,
            51.8162948
          ],
          [
            -8.5009527,
            51.8162806
          ],
          [
            -8.5014158,
            51.8162513
          ],
          [
            -8.5025887,
            51.8161785
          ],
          [
            -8.5037498,
            51.8160991
          ],
          [
            -8.5049083,
            51.8160175
          ],
          [
            -8.5060217,
            51.815922
          ],
          [
            -8.5060975,
            51.8159148
          ],
          [
            -8.5067031,
            51.8158482
          ],
          [
            -8.5074532,
            51.8157501
          ],
          [
            -8.5077773,
            51.8157038
          ],
          [
            -8.5082216,
            51.8156403
          ],
          [
            -8.5093412,
            51.8154728
          ],
          [
            -8.5103937,
            51.8152983
          ],
          [
            -8.5109861,
            51.8152001
          ],
          [
            -8.5121332,
            51.8149862
          ],
          [
            -8.5134515,
            51.8147442
          ],
          [
            -8.5144072,
            51.8145169
          ],
          [
            -8.5149124,
            51.8143967
          ],
          [
            -8.5150652,
            51.8143604
          ],
          [
            -8.5155309,
            51.8142226
          ],
          [
            -8.5160131,
            51.8140682
          ],
          [
            -8.5165261,
            51.8138905
          ],
          [
            -8.5172685,
            51.8136648
          ],
          [
            -8.518836,
            51.8132132
          ],
          [
            -8.5198234,
            51.8129975
          ]
        ]
      }
    },
    {
      "type": "Feature",
      "properties": {
        "osm_way_id": 691375744,
        "road_ref": "R613",
        "name": "R613"
      },
      "geometry": {
        "type": "LineString",
        "coordinates": [
          [
            -8.5315373,
            51.8111544
          ],
          [
            -8.531917,
            51.8110245
          ],
          [
            -8.5323233,
            51.8109254
          ],
          [
            -8.5327644,
            51.8108673
          ],
          [
            -8.5332105,
            51.810841
          ],
          [
            -8.5335731,
            51.8108449
          ],
          [
            -8.5339192,
            51.8108775
          ],
          [
            -8.5342443,
            51.8109252
          ],
          [
            -8.5345803,
            51.810993
          ],
          [
            -8.5351515,
            51.8111542
          ],
          [
            -8.5357431,
            51.8113211
          ],
          [
            -8.5365024,
            51.8115276
          ],
          [
            -8.5365739,
            51.8115471
          ],
          [
            -8.5372725,
            51.8117611
          ]
        ]
      }
    },
    {
      "type": "Feature",
      "properties": {
        "osm_way_id": 691375746,
        "road_ref": "R613",
        "name": "R613"
      },
      "geometry": {
        "type": "LineString",
        "coordinates": [
          [
            -8.5271087,
            51.8119222
          ],
          [
            -8.5274533,
            51.8118939
          ],
          [
            -8.527837,
            51.8118623
          ],
          [
            -8.5280326,
            51.8118462
          ],
          [
            -8.5285152,
            51.8118035
          ],
          [
            -8.5286234,
            51.8117943
          ],
          [
            -8.5290401,
            51.8117565
          ],
          [
            -8.5296346,
            51.8116949
          ],
          [
            -8.5301009,
            51.8116481
          ],
          [
            -8.5302605,
            51.811624
          ],
          [
            -8.5303721,
            51.8115947
          ],
          [
            -8.5307651,
            51.8115228
          ],
          [
            -8.531317,
            51.8112418
          ],
          [
            -8.5315373,
            51.8111544
          ]
        ]
      }
    },
    {
      "type": "Feature",
      "properties": {
        "osm_way_id": 691375788,
        "road_ref": "R613",
        "name": "R613"
      },
      "geometry": {
        "type": "LineString",
        "coordinates": [
          [
            -8.5198234,
            51.8129975
          ],
          [
            -8.5198611,
            51.8129898
          ],
          [
            -8.5203387,
            51.8128928
          ],
          [
            -8.520372,
            51.8128869
          ],
          [
            -8.5208074,
            51.8128053
          ],
          [
            -8.5210732,
            51.8127622
          ],
          [
            -8.5216603,
            51.8126671
          ],
          [
            -8.5217378,
            51.8126546
          ],
          [
            -8.5219327,
            51.812623
          ],
          [
            -8.5238288,
            51.8123385
          ],
          [
            -8.5251922,
            51.8121373
          ],
          [
            -8.5262612,
            51.8120039
          ],
          [
            -8.5271087,
            51.8119222
          ]
        ]
      }
    },
    {
      "type": "Feature",
      "properties": {
        "osm_way_id": 775951222,
        "road_ref": "R613",
        "name": "Church Road"
      },
      "geometry": {
        "type": "LineString",
        "coordinates": [
          [
            -8.375009,
            51.8158468
          ],
          [
            -8.3743799,
            51.8158677
          ],
          [
            -8.3743357,
            51.8158692
          ]
        ]
      }
    },
    {
      "type": "Feature",
      "properties": {
        "osm_way_id": 884552216,
        "road_ref": "R613",
        "name": "R613"
      },
      "geometry": {
        "type": "LineString",
        "coordinates": [
          [
            -8.4517325,
            51.8261874
          ],
          [
            -8.4518785,
            51.8261596
          ],
          [
            -8.4522522,
            51.8260545
          ],
          [
            -8.452359,
            51.8260179
          ],
          [
            -8.453007,
            51.8257961
          ],
          [
            -8.453196,
            51.8257612
          ],
          [
            -8.4534434,
            51.8257257
          ]
        ]
      }
    },
    {
      "type": "Feature",
      "properties": {
        "osm_way_id": 884552217,
        "road_ref": "R613",
        "name": "R613"
      },
      "geometry": {
        "type": "LineString",
        "coordinates": [
          [
            -8.4534434,
            51.8257257
          ],
          [
            -8.4535766,
            51.8257066
          ]
        ]
      }
    },
    {
      "type": "Feature",
      "properties": {
        "osm_way_id": 1050003632,
        "road_ref": "R613",
        "name": "Ballea Road"
      },
      "geometry": {
        "type": "LineString",
        "coordinates": [
          [
            -8.4124181,
            51.8183086
          ],
          [
            -8.4126955,
            51.8182108
          ],
          [
            -8.4130466,
            51.8181335
          ],
          [
            -8.413384,
            51.8181128
          ],
          [
            -8.4137131,
            51.8180833
          ],
          [
            -8.4139636,
            51.8180254
          ],
          [
            -8.4144201,
            51.8178616
          ],
          [
            -8.4149402,
            51.8176575
          ],
          [
            -8.415187,
            51.8175913
          ],
          [
            -8.4156644,
            51.8174993
          ],
          [
            -8.4160692,
            51.8174328
          ],
          [
            -8.4166222,
            51.8173617
          ],
          [
            -8.4170838,
            51.8173506
          ],
          [
            -8.4174956,
            51.8173245
          ],
          [
            -8.4175349,
            51.8173221
          ],
          [
            -8.4177225,
            51.8173104
          ]
        ]
      }
    },
    {
      "type": "Feature",
      "properties": {
        "osm_way_id": 1075351207,
        "road_ref": "R613",
        "name": "R613"
      },
      "geometry": {
        "type": "LineString",
        "coordinates": [
          [
            -8.4906972,
            51.8169386
          ],
          [
            -8.4908182,
            51.8169135
          ],
          [
            -8.4909576,
            51.8169169
          ],
          [
            -8.4910935,
            51.8169352
          ],
          [
            -8.4912211,
            51.8169838
          ],
          [
            -8.4912882,
            51.8170067
          ],
          [
            -8.4914032,
            51.8170481
          ]
        ]
      }
    },
    {
      "type": "Feature",
      "properties": {
        "osm_way_id": 1075351209,
        "road_ref": "R613",
        "name": "R613"
      },
      "geometry": {
        "type": "LineString",
        "coordinates": [
          [
            -8.4907875,
            51.817227
          ],
          [
            -8.4907995,
            51.8171979
          ],
          [
            -8.4910164,
            51.8171052
          ],
          [
            -8.4910625,
            51.8170496
          ],
          [
            -8.4910533,
            51.8169854
          ],
          [
            -8.4909495,
            51.8169469
          ],
          [
            -8.4906972,
            51.8169386
          ]
        ]
      }
    },
    {
      "type": "Feature",
      "properties": {
        "osm_way_id": 1075351210,
        "road_ref": "R613",
        "name": "R613"
      },
      "geometry": {
        "type": "LineString",
        "coordinates": [
          [
            -8.4912461,
            51.817125
          ],
          [
            -8.491161,
            51.8170669
          ],
          [
            -8.4910533,
            51.8169854
          ]
        ]
      }
    },
    {
      "type": "Feature",
      "properties": {
        "osm_way_id": 1119354831,
        "road_ref": "R613",
        "name": "Church Road"
      },
      "geometry": {
        "type": "LineString",
        "coordinates": [
          [
            -8.3826105,
            51.8155883
          ],
          [
            -8.3815494,
            51.815727
          ]
        ]
      }
    },
    {
      "type": "Feature",
      "properties": {
        "osm_way_id": 1119354832,
        "road_ref": "R613",
        "name": "Church Road"
      },
      "geometry": {
        "type": "LineString",
        "coordinates": [
          [
            -8.3871631,
            51.8156413
          ],
          [
            -8.3869627,
            51.8155927
          ],
          [
            -8.3867952,
            51.8155508
          ],
          [
            -8.386725,
            51.8155327
          ],
          [
            -8.3866479,
            51.8155135
          ],
          [
            -8.386177,
            51.8154126
          ]
        ]
      }
    },
    {
      "type": "Feature",
      "properties": {
        "osm_way_id": 1119362877,
        "road_ref": "R613",
        "name": "Church Road"
      },
      "geometry": {
        "type": "LineString",
        "coordinates": [
          [
            -8.3885502,
            51.8159912
          ],
          [
            -8.3885607,
            51.8159936
          ],
          [
            -8.3886157,
            51.8160073
          ],
          [
            -8.3888282,
            51.8160546
          ]
        ]
      }
    },
    {
      "type": "Feature",
      "properties": {
        "osm_way_id": 1145612491,
        "road_ref": "R613",
        "name": "R613"
      },
      "geometry": {
        "type": "LineString",
        "coordinates": [
          [
            -8.5372725,
            51.8117611
          ],
          [
            -8.538467,
            51.8121197
          ],
          [
            -8.5391925,
            51.8123166
          ]
        ]
      }
    },
    {
      "type": "Feature",
      "properties": {
        "osm_way_id": 1175223401,
        "road_ref": "R613",
        "name": "Church Road"
      },
      "geometry": {
        "type": "LineString",
        "coordinates": [
          [
            -8.3837955,
            51.8154255
          ],
          [
            -8.3837649,
            51.8154289
          ],
          [
            -8.3834261,
            51.8154773
          ],
          [
            -8.383063,
            51.8155292
          ],
          [
            -8.3826105,
            51.8155883
          ]
        ]
      }
    },
    {
      "type": "Feature",
      "properties": {
        "osm_way_id": 1284473502,
        "road_ref": "R613",
        "name": "Church Road"
      },
      "geometry": {
        "type": "LineString",
        "coordinates": [
          [
            -8.3896317,
            51.816272
          ],
          [
            -8.3899877,
            51.816363
          ]
        ]
      }
    },
    {
      "type": "Feature",
      "properties": {
        "osm_way_id": 1284473504,
        "road_ref": "R613",
        "name": "R613"
      },
      "geometry": {
        "type": "LineString",
        "coordinates": [
          [
            -8.4631306,
            51.8237723
          ],
          [
            -8.4631479,
            51.8237693
          ],
          [
            -8.4635856,
            51.8236925
          ],
          [
            -8.463954,
            51.8236367
          ],
          [
            -8.4641022,
            51.8236122
          ],
          [
            -8.4642686,
            51.8235724
          ]
        ]
      }
    }
  ]
}