{
  "type": "FeatureCollection",
  "features": [
    {
      "type": "Feature",
      "properties": {
        "segment_id": "r613-seg-1",
        "road_ref": "R613",
        "label": "Cork to Douglas",
        "sequence_order": 0
      },
      "geometry": {
        "type": "LineString",
        "coordinates": [
          [
            -8.4591807,
            51.8246392
          ],
          [
            -8.4581982,
            51.824825849999996
          ],
          [
            -8.4569284,
            51.8250693
          ],
          [
            -8.4555339,
            51.8253518
          ],
          [
            -8.454258,
            51.8255925
          ],
          [
            -8.453415271428572,
            51.82573085714286
          ],
          [
            -8.45199094,
            51.82612136
          ],
          [
            -8.45111225,
            51.8262862
          ],
          [
            -8.4503282,
            51.8263769
          ],
          [
            -8.4484976,
            51.8267168
          ],
          [
            -8.4469991,
            51.8269951
          ],
          [
            -8.446427785019704,
            51.82707157394324
          ]
        ]
      }
    },
    {
      "type": "Feature",
      "properties": {
        "segment_id": "r613-seg-2",
        "road_ref": "R613",
        "label": "Douglas to Carrigaline",
        "sequence_order": 1
      },
      "geometry": {
        "type": "LineString",
        "coordinates": [
          [
            -8.446427785019704,
            51.82707157394324
          ],
          [
            -8.446301833333335,
            51.82708843333333
          ],
          [
            -8.444107366666666,
            51.82724679999999
          ],
          [
            -8.4432749,
            51.82726543333333
          ],
          [
            -8.4419722,
            51.82738755
          ],
          [
            -8.441209749999999,
            51.8274426
          ],
          [
            -8.4400084,
            51.8274687
          ],
          [
            -8.43915875,
            51.82746185
          ],
          [
            -8.4378244,
            51.82768
          ],
          [
            -8.43681945,
            51.8277865
          ],
          [
            -8.43605008,
            51.82797106
          ],
          [
            -8.4344215,
            51.8284379
          ],
          [
            -8.43320515,
            51.8286743
          ],
          [
            -8.4321587,
            51.8287612
          ],
          [
            -8.4313261,
            51.8287965
          ],
          [
            -8.43048905,
            51.828862275
          ],
          [
            -8.42929,
            51.8287577
          ],
          [
            -8.428314,
            51.8285764
          ],
          [
            -8.4278762,
            51.8285177
          ],
          [
            -8.4271518,
            51.8284615
          ],
          [
            -8.42596705,
            51.8283295
          ],
          [
            -8.424107733333335,
            51.82809786666667
          ],
          [
            -8.423416333333334,
            51.82787403333333
          ],
          [
            -8.4228247,
            51.827512850000005
          ],
          [
            -8.42199175,
            51.8273518
          ],
          [
            -8.4210825,
            51.8272403
          ],
          [
            -8.420387300000002,
            51.827045749999996
          ],
          [
            -8.421158354545454,
            51.82500611818182
          ],
          [
            -8.420437080000001,
            51.824819520000005
          ],
          [
            -8.4215663,
            51.82220099999999
          ],
          [
            -8.4215733,
            51.8213584
          ],
          [
            -8.4214019,
            51.8205734
          ],
          [
            -8.42112525,
            51.8195113
          ],
          [
            -8.42101666,
            51.81853882
          ],
          [
            -8.42022915,
            51.8182696
          ],
          [
            -8.4199039,
            51.8181259
          ],
          [
            -8.418942049999998,
            51.817594549999995
          ],
          [
            -8.4181444,
            51.8173547
          ],
          [
            -8.417511860000001,
            51.817323599999995
          ],
          [
            -8.4163457,
            51.81739725
          ],
          [
            -8.415052925,
            51.817652425
          ],
          [
            -8.4136869,
            51.81807383333334
          ],
          [
            -8.412512379999999,
            51.818282260000004
          ],
          [
            -8.41141645,
            51.818580775
          ],
          [
            -8.41024096,
            51.818654679999995
          ],
          [
            -8.409557325,
            51.8184156
          ],
          [
            -8.408930233333335,
            51.8180562
          ],
          [
            -8.408260033333333,
            51.81774393333333
          ],
          [
            -8.407237866666668,
            51.817481799999996
          ],
          [
            -8.4065146,
            51.8173215
          ],
          [
            -8.405714914285713,
            51.81722077142857
          ],
          [
            -8.404945222222223,
            51.81719301388889
          ],
          [
            -8.4035056,
            51.8171335
          ],
          [
            -8.40278805,
            51.81710065
          ],
          [
            -8.4020675,
            51.8170315
          ],
          [
            -8.401095675,
            51.81693715
          ],
          [
            -8.400334,
            51.816927125
          ],
          [
            -8.39914855,
            51.81700585
          ],
          [
            -8.398902030150404,
            51.817017452178746
          ]
        ]
      }
    }
  ]
}